[{"OBJECT_NAME":"STARLINK-32009","OBJECT_ID":"2024-117P","EPOCH":"2025-10-21T09:10:17.514624","MEAN_MOTION":15.30186905,"ECCENTRICITY":0.00010948,"INCLINATION":53.1598,"RA_OF_ASC_NODE":324.4683,"ARG_OF_PERICENTER":81.4436,"MEAN_ANOMALY":278.6689,"EPHEMERIS_TYPE":0,"CLASSIFICATION_TYPE":"U","NORAD_CAT_ID":60104,"ELEMENT_SET_NO":999,"REV_AT_EPOCH":7555,"BSTAR":5.105302e-6,"MEAN_MOTION_DOT":-2.08e-6,"MEAN_MOTION_DDOT":0},{"OBJECT_NAME":"STARLINK-32018","OBJECT_ID":"2024-117Q","EPOCH":"2025-10-21T08:38:22.799040","MEAN_MOTION":15.30182876,"ECCENTRICITY":0.00010857,"INCLINATION":53.1601,"RA_OF_ASC_NODE":324.3511,"ARG_OF_PERICENTER":83.8054,"MEAN_ANOMALY":276.3071,"EPHEMERIS_TYPE":0,"CLASSIFICATION_TYPE":"U","NORAD_CAT_ID":60105,"ELEMENT_SET_NO":999,"REV_AT_EPOCH":7555,"BSTAR":7.7186126e-5,"MEAN_MOTION_DOT":1.926e-5,"MEAN_MOTION_DDOT":0},{"OBJECT_NAME":"STARLINK-32045","OBJECT_ID":"2024-117R","EPOCH":"2025-10-21T08:42:56.330208","MEAN_MOTION":15.30190787,"ECCENTRICITY":0.00013803,"INCLINATION":53.1609,"RA_OF_ASC_NODE":324.3738,"ARG_OF_PERICENTER":84.2493,"MEAN_ANOMALY":275.8665,"EPHEMERIS_TYPE":0,"CLASSIFICATION_TYPE":"U","NORAD_CAT_ID":60106,"ELEMENT_SET_NO":999,"REV_AT_EPOCH":7555,"BSTAR":6.1075813e-5,"MEAN_MOTION_DOT":1.45e-5,"MEAN_MOTION_DDOT":0},{"OBJECT_NAME":"STARLINK-32035","OBJECT_ID":"2024-117S","EPOCH":"2025-10-21T08:23:10.772736","MEAN_MOTION":15.30194958,"ECCENTRICITY":0.00016649,"INCLINATION":53.1615,"RA_OF_ASC_NODE":324.2881,"ARG_OF_PERICENTER":97.5602,"MEAN_ANOMALY":262.5588,"EPHEMERIS_TYPE":0,"CLASSIFICATION_TYPE":"U","NORAD_CAT_ID":60107,"ELEMENT_SET_NO":999,"REV_AT_EPOCH":7555,"BSTAR":9.4991006e-5,"MEAN_MOTION_DOT":2.454e-5,"MEAN_MOTION_DDOT":0},{"OBJECT_NAME":"STARLINK-32042","OBJECT_ID":"2024-117T","EPOCH":"2025-10-21T09:43:33.964608","MEAN_MOTION":15.30194323,"ECCENTRICITY":0.00015443,"INCLINATION":53.16,"RA_OF_ASC_NODE":323.9255,"ARG_OF_PERICENTER":80.9102,"MEAN_ANOMALY":279.2073,"EPHEMERIS_TYPE":0,"CLASSIFICATION_TYPE":"U","NORAD_CAT_ID":60108,"ELEMENT_SET_NO":999,"REV_AT_EPOCH":7556,"BSTAR":0.00011104543,"MEAN_MOTION_DOT":2.93e-5,"MEAN_MOTION_DDOT":0},{"OBJECT_NAME":"STARLINK-32040","OBJECT_ID":"2024-117U","EPOCH":"2025-10-21T13:59:53.047968","MEAN_MOTION":15.30195818,"ECCENTRICITY":0.0001258,"INCLINATION":53.1611,"RA_OF_ASC_NODE":322.9084,"ARG_OF_PERICENTER":94.3977,"MEAN_ANOMALY":265.7167,"EPHEMERIS_TYPE":0,"CLASSIFICATION_TYPE":"U","NORAD_CAT_ID":60109,"ELEMENT_SET_NO":999,"REV_AT_EPOCH":7559,"BSTAR":2.6021e-5,"MEAN_MOTION_DOT":4.11e-6,"MEAN_MOTION_DDOT":0},{"OBJECT_NAME":"STARLINK-32001","OBJECT_ID":"2024-117V","EPOCH":"2025-10-21T09:29:52.944288","MEAN_MOTION":15.30189452,"ECCENTRICITY":0.00011959,"INCLINATION":53.1609,"RA_OF_ASC_NODE":323.8642,"ARG_OF_PERICENTER":113.487,"MEAN_ANOMALY":246.6257,"EPHEMERIS_TYPE":0,"CLASSIFICATION_TYPE":"U","NORAD_CAT_ID":60110,"ELEMENT_SET_NO":999,"REV_AT_EPOCH":7556,"BSTAR":7.23313e-6,"MEAN_MOTION_DOT":-1.45e-6,"MEAN_MOTION_DDOT":0},{"OBJECT_NAME":"STARLINK-32015","OBJECT_ID":"2024-117W","EPOCH":"2025-10-21T10:54:49.169664","MEAN_MOTION":15.3019102,"ECCENTRICITY":0.0001356,"INCLINATION":53.1608,"RA_OF_ASC_NODE":323.5218,"ARG_OF_PERICENTER":82.6868,"MEAN_ANOMALY":277.4287,"EPHEMERIS_TYPE":0,"CLASSIFICATION_TYPE":"U","NORAD_CAT_ID":60111,"ELEMENT_SET_NO":999,"REV_AT_EPOCH":7557,"BSTAR":1.6974e-5,"MEAN_MOTION_DOT":1.43e-6,"MEAN_MOTION_DDOT":0},{"OBJECT_NAME":"STARLINK-32024","OBJECT_ID":"2024-117X","EPOCH":"2025-10-21T11:13:03.523296","MEAN_MOTION":15.30193056,"ECCENTRICITY":0.0001298,"INCLINATION":53.1605,"RA_OF_ASC_NODE":323.6015,"ARG_OF_PERICENTER":97.5245,"MEAN_ANOMALY":262.5903,"EPHEMERIS_TYPE":0,"CLASSIFICATION_TYPE":"U","NORAD_CAT_ID":60112,"ELEMENT_SET_NO":999,"REV_AT_EPOCH":7557,"BSTAR":0.00011232,"MEAN_MOTION_DOT":2.968e-5,"MEAN_MOTION_DDOT":0},{"OBJECT_NAME":"STARLINK-11201 [DTC]","OBJECT_ID":"2024-118A","EPOCH":"2025-10-21T20:32:59.640576","MEAN_MOTION":15.69716073,"ECCENTRICITY":7.57e-5,"INCLINATION":53.1573,"RA_OF_ASC_NODE":185.9757,"ARG_OF_PERICENTER":104.0739,"MEAN_ANOMALY":256.0363,"EPHEMERIS_TYPE":0,"CLASSIFICATION_TYPE":"U","NORAD_CAT_ID":60113,"ELEMENT_SET_NO":999,"REV_AT_EPOCH":7618,"BSTAR":4.1064e-5,"MEAN_MOTION_DOT":4.391e-5,"MEAN_MOTION_DDOT":0},{"OBJECT_NAME":"STARLINK-11198 [DTC]","OBJECT_ID":"2024-118B","EPOCH":"2025-10-21T20:25:56.010144","MEAN_MOTION":15.69694799,"ECCENTRICITY":4.27e-5,"INCLINATION":53.1591,"RA_OF_ASC_NODE":185.9444,"ARG_OF_PERICENTER":85.4382,"MEAN_ANOMALY":274.6685,"EPHEMERIS_TYPE":0,"CLASSIFICATION_TYPE":"U","NORAD_CAT_ID":60114,"ELEMENT_SET_NO":999,"REV_AT_EPOCH":7618,"BSTAR":-4.6211e-6,"MEAN_MOTION_DOT":-1.147e-5,"MEAN_MOTION_DDOT":0},{"OBJECT_NAME":"STARLINK-11112 [DTC]","OBJECT_ID":"2024-118C","EPOCH":"2025-10-21T17:15:29.523744","MEAN_MOTION":15.69709942,"ECCENTRICITY":9.88e-5,"INCLINATION":53.1587,"RA_OF_ASC_NODE":186.5408,"ARG_OF_PERICENTER":114.9661,"MEAN_ANOMALY":245.1459,"EPHEMERIS_TYPE":0,"CLASSIFICATION_TYPE":"U","NORAD_CAT_ID":60115,"ELEMENT_SET_NO":999,"REV_AT_EPOCH":7616,"BSTAR":2.7458e-5,"MEAN_MOTION_DOT":2.739e-5,"MEAN_MOTION_DDOT":0},{"OBJECT_NAME":"STARLINK-11210 [DTC]","OBJECT_ID":"2024-118D","EPOCH":"2025-10-21T03:23:16.821024","MEAN_MOTION":15.69718626,"ECCENTRICITY":0.00010699,"INCLINATION":53.1597,"RA_OF_ASC_NODE":189.3332,"ARG_OF_PERICENTER":92.4417,"MEAN_ANOMALY":267.6723,"EPHEMERIS_TYPE":0,"CLASSIFICATION_TYPE":"U","NORAD_CAT_ID":60116,"ELEMENT_SET_NO":999,"REV_AT_EPOCH":7607,"BSTAR":-1.3375373e-5,"MEAN_MOTION_DOT":-2.209e-5,"MEAN_MOTION_DDOT":0},{"OBJECT_NAME":"STARLINK-11203 [DTC]","OBJECT_ID":"2024-118E","EPOCH":"2025-10-21T03:16:13.232064","MEAN_MOTION":15.69708579,"ECCENTRICITY":0.00010506,"INCLINATION":53.159,"RA_OF_ASC_NODE":189.3006,"ARG_OF_PERICENTER":83.9897,"MEAN_ANOMALY":276.1241,"EPHEMERIS_TYPE":0,"CLASSIFICATION_TYPE":"U","NORAD_CAT_ID":60117,"ELEMENT_SET_NO":999,"REV_AT_EPOCH":7607,"BSTAR":-4.533685e-6,"MEAN_MOTION_DOT":-1.138e-5,"MEAN_MOTION_DDOT":0},{"OBJECT_NAME":"STARLINK-11177 [DTC]","OBJECT_ID":"2024-118F","EPOCH":"2025-10-21T16:54:18.235872","MEAN_MOTION":15.69712792,"ECCENTRICITY":8.82e-5,"INCLINATION":53.1584,"RA_OF_ASC_NODE":186.4412,"ARG_OF_PERICENTER":116.7372,"MEAN_ANOMALY":243.3736,"EPHEMERIS_TYPE":0,"CLASSIFICATION_TYPE":"U","NORAD_CAT_ID":60118,"ELEMENT_SET_NO":999,"REV_AT_EPOCH":7616,"BSTAR":1.3728e-5,"MEAN_MOTION_DOT":1.075e-5,"MEAN_MOTION_DDOT":0},{"OBJECT_NAME":"STARLINK-11127 [DTC]","OBJECT_ID":"2024-118G","EPOCH":"2025-10-21T16:47:14.422272","MEAN_MOTION":15.69722388,"ECCENTRICITY":0.0001017,"INCLINATION":53.1572,"RA_OF_ASC_NODE":186.4074,"ARG_OF_PERICENTER":114.1864,"MEAN_ANOMALY":245.926,"EPHEMERIS_TYPE":0,"CLASSIFICATION_TYPE":"U","NORAD_CAT_ID":60119,"ELEMENT_SET_NO":999,"REV_AT_EPOCH":7616,"BSTAR":4.3485e-5,"MEAN_MOTION_DOT":4.685e-5,"MEAN_MOTION_DDOT":0}]
