STARLINK-32009          
1 60104U 24117P   25294.38214716 -.00000208  00000+0  51053-5 0  9999
2 60104  53.1598 324.4683 0001094  81.4436 278.6689 15.30186905 75550
STARLINK-32018          
1 60105U 24117Q   25294.35998610  .00001926  00000+0  77186-4 0  9990
2 60105  53.1601 324.3511 0001085  83.8054 276.3071 15.30182876 75550
STARLINK-32045          
1 60106U 24117R   25294.36315197  .00001450  00000+0  61076-4 0  9998
2 60106  53.1609 324.3738 0001380  84.2493 275.8665 15.30190787 75553
STARLINK-32035          
1 60107U 24117S   25294.34943024  .00002454  00000+0  94991-4 0  9990
2 60107  53.1615 324.2881 0001664  97.5602 262.5588 15.30194958 75554
STARLINK-32042          
1 60108U 24117T   25294.40525422  .00002930  00000+0  11105-3 0  9990
2 60108  53.1600 323.9255 0001544  80.9102 279.2073 15.30194323 75569
STARLINK-32040          
1 60109U 24117U   25294.58325287  .00000411  00000+0  26021-4 0  9993
2 60109  53.1611 322.9084 0001258  94.3977 265.7167 15.30195818 75599
STARLINK-32001          
1 60110U 24117V   25294.39575167 -.00000145  00000+0  72331-5 0  9999
2 60110  53.1609 323.8642 0001195 113.4870 246.6257 15.30189452 75565
STARLINK-32015          
1 60111U 24117W   25294.45473576  .00000143  00000+0  16974-4 0  9995
2 60111  53.1608 323.5218 0001356  82.6868 277.4287 15.30191020 75574
STARLINK-32024          
1 60112U 24117X   25294.46740189  .00002968  00000+0  11232-3 0  9992
2 60112  53.1605 323.6015 0001298  97.5245 262.5903 15.30193056 75578
STARLINK-11201 [DTC]    
1 60113U 24118A   25294.85624584  .00004391  00000+0  41064-4 0  9996
2 60113  53.1573 185.9757 0000757 104.0739 256.0363 15.69716073 76184
STARLINK-11198 [DTC]    
1 60114U 24118B   25294.85134271 -.00001147  00000+0 -46211-5 0  9994
2 60114  53.1591 185.9444 0000427  85.4382 274.6685 15.69694799 76181
STARLINK-11112 [DTC]    
1 60115U 24118C   25294.71909171  .00002739  00000+0  27458-4 0  9996
2 60115  53.1587 186.5408 0000988 114.9661 245.1459 15.69709942 76161
STARLINK-11210 [DTC]    
1 60116U 24118D   25294.14116691 -.00002209  00000+0 -13375-4 0  9998
2 60116  53.1597 189.3332 0001069  92.4417 267.6723 15.69718626 76072
STARLINK-11203 [DTC]    
1 60117U 24118E   25294.13626426 -.00001138  00000+0 -45337-5 0  9994
2 60117  53.1590 189.3006 0001050  83.9897 276.1241 15.69708579 76077
STARLINK-11177 [DTC]    
1 60118U 24118F   25294.70437773  .00001075  00000+0  13728-4 0  9999
2 60118  53.1584 186.4412 0000882 116.7372 243.3736 15.69712792 76162
STARLINK-11127 [DTC]    
1 60119U 24118G   25294.69947248  .00004685  00000+0  43485-4 0  9994
2 60119  53.1572 186.4074 0001017 114.1864 245.9260 15.69722388 76165
